38040,GLOBALSTAR M084,2011,114.08,700.0,+,52.0,Active,1,LEO,Kazakhstan,Globalstar,Commercial,Communications,Soyuz,1 38040U 11080A   24365.56461455 -.00000077  00000+0  15170-3 0  9992,2 38040  51.9980 201.8221 0001315  75.3673 331.8623 12.62273112601376,12.62273112,0.0001315,LEO
38041,GLOBALSTAR M080,2011,114.08,700.0,+,52.0,Active,1,LEO,Kazakhstan,Globalstar,Commercial,Communications,Soyuz,1 38041U 11080B   24365.61624512 -.00000079  00000+0  13809-3 0  9993,2 38041  52.0034 203.2154 0001262  61.2454 339.0760 12.62260102601504,12.62260102,0.0001262,LEO
38042,GLOBALSTAR M082,2011,114.08,700.0,+,52.01,Active,1,LEO,Kazakhstan,Globalstar,Commercial,Communications,Soyuz,1 38042U 11080C   24365.54722042 -.00000110  00000+0 -36526-4 0  9992,2 38042  52.0053 158.8506 0001249 124.2720 263.3529 12.62271805602205,12.62271805,0.0001249,LEO
38043,GLOBALSTAR M092,2011,114.08,700.0,+,52.01,Active,1,LEO,Kazakhstan,Globalstar,Commercial,Communications,Soyuz,1 38043U 11080D   24365.47362775 -.00000053  00000+0  28103-3 0  9994,2 38043  52.0072 249.4445 0001042  71.5036 101.5536 12.62271269600642,12.62271269,0.0001042,LEO
38044,GLOBALSTAR M090,2011,114.08,700.0,+,51.99,Active,1,LEO,Kazakhstan,Globalstar,Commercial,Communications,Soyuz,1 38044U 11080E   24365.58805560 -.00000117  00000+0 -72281-4 0  9990,2 38044  51.9865 152.7515 0001002 114.7122 338.5267 12.62265402602329,12.62265402,0.0001002,LEO
38045,GLOBALSTAR M086,2011,114.08,700.0,+,51.99,Active,1,LEO,Kazakhstan,Globalstar,Commercial,Communications,Soyuz,1 38045U 11080F   24365.52133288 -.00000105  00000+0 -95227-5 0  9999,2 38045  51.9876 153.4923 0000414  45.9893 344.3589 12.62265320602263,12.6226532,4.14e-05,LEO
39072,GLOBALSTAR M097,2013,114.08,700.0,+,52.01,Active,1,LEO,Kazakhstan,Globalstar,Commercial,Communications,Soyuz,1 39072U 13005A   24365.62060908 -.00000095  00000+0  48086-4 0  9995,2 39072  52.0057  67.5680 0000421 144.1938 215.8957 12.62268260549607,12.6226826,4.21e-05,LEO
39073,GLOBALSTAR M093,2013,114.08,700.0,+,51.98,Active,1,LEO,Kazakhstan,Globalstar,Commercial,Communications,Soyuz,1 39073U 13005B   24365.59352914 -.00000101  00000+0  14904-4 0  9993,2 39073  51.9821  61.2183 0000390 151.2672 208.8216 12.62260408549597,12.62260408,3.9e-05,LEO
